{"type": "FeatureCollection", "features": [ {"type": "Feature", "properties": {"norad_id": 32205, "name": "FENGYUN 1C DEB", "group": "fengyun-1c-debris", "lat": -56.3033544998891, "lon": 151.53370333920873, "alt_km": 850.9381191254133, "timestamp": "2025-12-06T16:45:43.008079+00:00", "meta": {"OBJECT_NAME": "FENGYUN 1C DEB", "OBJECT_ID": "1999-025CVB", "EPOCH": "2025-12-06T07:13:28.529760", "MEAN_MOTION": 14.13904804, "ECCENTRICITY": 0.00102392, "INCLINATION": 98.6786, "RA_OF_ASC_NODE": 344.3889, "ARG_OF_PERICENTER": 311.7188, "MEAN_ANOMALY": 64.0351, "EPHEMERIS_TYPE": 0, "CLASSIFICATION_TYPE": "U", "NORAD_CAT_ID": 32205, "ELEMENT_SET_NO": 999, "REV_AT_EPOCH": 94407, "BSTAR": 0.00029922215, "MEAN_MOTION_DOT": 5.25e-06, "MEAN_MOTION_DDOT": 0}, "tle": {"line1": "1 32205U 99025CVB 25340.30102465  .00000525  00000+0  29922-3 0  9990", "line2": "2 32205  98.6786 344.3889 0010239 311.7188  64.0351 14.13904804944078"}}, "geometry": {"type": "Point", "coordinates": [151.53370333920873, -56.3033544998891]}}, {"type": "Feature", "properties": {"norad_id": 32209, "name": "FENGYUN 1C DEB", "group": "fengyun-1c-debris", "lat": -31.12800603866702, "lon": 102.70644199796531, "alt_km": 1334.0320760667491, "timestamp": "2025-12-06T16:45:43.008089+00:00", "meta": {"OBJECT_NAME": "FENGYUN 1C DEB", "OBJECT_ID": "1999-025CVF", "EPOCH": "2025-12-01T19:52:12.211968", "MEAN_MOTION": 13.47100658, "ECCENTRICITY": 0.03328885, "INCLINATION": 99.4197, "RA_OF_ASC_NODE": 283.8685, "ARG_OF_PERICENTER": 52.3889, "MEAN_ANOMALY": 310.6974, "EPHEMERIS_TYPE": 0, "CLASSIFICATION_TYPE": "U", "NORAD_CAT_ID": 32209, "ELEMENT_SET_NO": 999, "REV_AT_EPOCH": 89829, "BSTAR": 0.002968545, "MEAN_MOTION_DOT": 2.491e-05, "MEAN_MOTION_DDOT": 0}, "tle": {"line1": "1 32209U 99025CVF 25335.82791912  .00002491  00000+0  29685-2 0  9995", "line2": "2 32209  99.4197 283.8685 0332888  52.3889 310.6974 13.47100658898295"}}, "geometry": {"type": "Point", "coordinates": [102.70644199796531, -31.12800603866702]}}, {"type": "Feature", "properties": {"norad_id": 32212, "name": "FENGYUN 1C DEB", "group": "fengyun-1c-debris", "lat": 0.3038602857482878, "lon": -103.27113726829492, "alt_km": 747.9524838653379, "timestamp": "2025-12-06T16:45:43.008100+00:00", "meta": {"OBJECT_NAME": "FENGYUN 1C DEB", "OBJECT_ID": "1999-025CVJ", "EPOCH": "2025-11-25T13:14:33.862848", "MEAN_MOTION": 14.40232074, "ECCENTRICITY": 0.01375663, "INCLINATION": 99.574, "RA_OF_ASC_NODE": 64.2206, "ARG_OF_PERICENTER": 128.3819, "MEAN_ANOMALY": 247.3372, "EPHEMERIS_TYPE": 0, "CLASSIFICATION_TYPE": "U", "NORAD_CAT_ID": 32212, "ELEMENT_SET_NO": 999, "REV_AT_EPOCH": 95814, "BSTAR": 0.00072151174, "MEAN_MOTION_DOT": 2.496e-05, "MEAN_MOTION_DDOT": 0}, "tle": {"line1": "1 32212U 99025CVJ 25329.55178082  .00002496  00000+0  72151-3 0  9991", "line2": "2 32212  99.5740  64.2206 0137566 128.3819 247.3372 14.40232074958148"}}, "geometry": {"type": "Point", "coordinates": [-103.27113726829492, 0.3038602857482878]}}, {"type": "Feature", "properties": {"norad_id": 32214, "name": "FENGYUN 1C DEB", "group": "fengyun-1c-debris", "lat": 10.631560917184135, "lon": 4.76266223098852, "alt_km": 829.3537068458563, "timestamp": "2025-12-06T16:45:43.008111+00:00", "meta": {"OBJECT_NAME": "FENGYUN 1C DEB", "OBJECT_ID": "1999-025CVL", "EPOCH": "2025-12-06T08:10:25.030272", "MEAN_MOTION": 13.90432695, "ECCENTRICITY": 0.01886587, "INCLINATION": 99.0432, "RA_OF_ASC_NODE": 6.1275, "ARG_OF_PERICENTER": 56.6296, "MEAN_ANOMALY": 325.5015, "EPHEMERIS_TYPE": 0, "CLASSIFICATION_TYPE": "U", "NORAD_CAT_ID": 32214, "ELEMENT_SET_NO": 999, "REV_AT_EPOCH": 62333, "BSTAR": 0.0072112856, "MEAN_MOTION_DOT": 0.00010314, "MEAN_MOTION_DDOT": 0}, "tle": {"line1": "1 32214U 99025CVL 25340.34056748  .00010314  00000+0  72113-2 0  9992", "line2": "2 32214  99.0432   6.1275 0188658  56.6296 325.5015 13.90432695623332"}}, "geometry": {"type": "Point", "coordinates": [4.76266223098852, 10.631560917184135]}}, {"type": "Feature", "properties": {"norad_id": 32218, "name": "FENGYUN 1C DEB", "group": "fengyun-1c-debris", "lat": -80.98733046930893, "lon": -107.82153741456574, "alt_km": 759.7726406045012, "timestamp": "2025-12-06T16:45:43.008121+00:00", "meta": {"OBJECT_NAME": "FENGYUN 1C DEB", "OBJECT_ID": "1999-025CVQ", "EPOCH": "2025-12-05T11:36:22.114656", "MEAN_MOTION": 14.55410134, "ECCENTRICITY": 0.00631193, "INCLINATION": 98.8115, "RA_OF_ASC_NODE": 172.9484, "ARG_OF_PERICENTER": 89.3836, "MEAN_ANOMALY": 301.1859, "EPHEMERIS_TYPE": 0, "CLASSIFICATION_TYPE": "U", "NORAD_CAT_ID": 32218, "ELEMENT_SET_NO": 999, "REV_AT_EPOCH": 96127, "BSTAR": 0.0014724563, "MEAN_MOTION_DOT": 6.523e-05, "MEAN_MOTION_DDOT": 0}, "tle": {"line1": "1 32218U 99025CVQ 25339.48358929  .00006523  00000+0  14725-2 0  9997", "line2": "2 32218  98.8115 172.9484 0063119  89.3836 301.1859 14.55410134961272"}}, "geometry": {"type": "Point", "coordinates": [-107.82153741456574, -80.98733046930893]}}, {"type": "Feature", "properties": {"norad_id": 32221, "name": "FENGYUN 1C DEB", "group": "fengyun-1c-debris", "lat": 81.35736940571906, "lon": 47.85906525297888, "alt_km": 662.5018120431341, "timestamp": "2025-12-06T16:45:43.008131+00:00", "meta": {"OBJECT_NAME": "FENGYUN 1C DEB", "OBJECT_ID": "1999-025CVT", "EPOCH": "2025-12-06T04:49:34.473216", "MEAN_MOTION": 14.58649144, "ECCENTRICITY": 0.01466462, "INCLINATION": 98.5656, "RA_OF_ASC_NODE": 129.9179, "ARG_OF_PERICENTER": 165.83, "MEAN_ANOMALY": 194.7081, "EPHEMERIS_TYPE": 0, "CLASSIFICATION_TYPE": "U", "NORAD_CAT_ID": 32221, "ELEMENT_SET_NO": 999, "REV_AT_EPOCH": 97102, "BSTAR": 0.00078081997, "MEAN_MOTION_DOT": 4.168e-05, "MEAN_MOTION_DDOT": 0}, "tle": {"line1": "1 32221U 99025CVT 25340.20109344  .00004168  00000+0  78082-3 0  9998", "line2": "2 32221  98.5656 129.9179 0146646 165.8300 194.7081 14.58649144971024"}}, "geometry": {"type": "Point", "coordinates": [47.85906525297888, 81.35736940571906]}}, {"type": "Feature", "properties": {"norad_id": 32223, "name": "FENGYUN 1C DEB", "group": "fengyun-1c-debris", "lat": 76.71480153181727, "lon": 18.532431001918237, "alt_km": 823.4561207533525, "timestamp": "2025-12-06T16:45:43.008141+00:00", "meta": {"OBJECT_NAME": "FENGYUN 1C DEB", "OBJECT_ID": "1999-025CVV", "EPOCH": "2025-12-03T10:55:28.371072", "MEAN_MOTION": 14.20810685, "ECCENTRICITY": 0.00466677, "INCLINATION": 98.8397, "RA_OF_ASC_NODE": 56.5179, "ARG_OF_PERICENTER": 345.0061, "MEAN_ANOMALY": 74.8726, "EPHEMERIS_TYPE": 0, "CLASSIFICATION_TYPE": "U", "NORAD_CAT_ID": 32223, "ELEMENT_SET_NO": 999, "REV_AT_EPOCH": 64092, "BSTAR": 0.0018929576, "MEAN_MOTION_DOT": 4.091e-05, "MEAN_MOTION_DDOT": 0}, "tle": {"line1": "1 32223U 99025CVV 25337.45518948  .00004091  00000+0  18930-2 0  9997", "line2": "2 32223  98.8397  56.5179 0046667 345.0061  74.8726 14.20810685640929"}}, "geometry": {"type": "Point", "coordinates": [18.532431001918237, 76.71480153181727]}}, {"type": "Feature", "properties": {"norad_id": 32224, "name": "FENGYUN 1C DEB", "group": "fengyun-1c-debris", "lat": -80.0680560902377, "lon": 46.87982872104328, "alt_km": 840.9452196535667, "timestamp": "2025-12-06T16:45:43.008151+00:00", "meta": {"OBJECT_NAME": "FENGYUN 1C DEB", "OBJECT_ID": "1999-025CVW", "EPOCH": "2025-12-05T14:24:41.494464", "MEAN_MOTION": 14.34000484, "ECCENTRICITY": 0.00772316, "INCLINATION": 98.9824, "RA_OF_ASC_NODE": 290.3364, "ARG_OF_PERICENTER": 87.0773, "MEAN_ANOMALY": 273.9246, "EPHEMERIS_TYPE": 0, "CLASSIFICATION_TYPE": "U", "NORAD_CAT_ID": 32224, "ELEMENT_SET_NO": 999, "REV_AT_EPOCH": 95621, "BSTAR": 0.00054413205, "MEAN_MOTION_DOT": 1.524e-05, "MEAN_MOTION_DDOT": 0}, "tle": {"line1": "1 32224U 99025CVW 25339.60048026  .00001524  00000+0  54413-3 0  9997", "line2": "2 32224  98.9824 290.3364 0077231  87.0773 273.9246 14.34000484956218"}}, "geometry": {"type": "Point", "coordinates": [46.87982872104328, -80.0680560902377]}}, {"type": "Feature", "properties": {"norad_id": 32225, "name": "FENGYUN 1C DEB", "group": "fengyun-1c-debris", "lat": -41.924792043343835, "lon": 37.53662051029045, "alt_km": 858.7052462973525, "timestamp": "2025-12-06T16:45:43.008162+00:00", "meta": {"OBJECT_NAME": "FENGYUN 1C DEB", "OBJECT_ID": "1999-025CVX", "EPOCH": "2025-12-04T22:28:43.601664", "MEAN_MOTION": 14.13034957, "ECCENTRICITY": 0.0071434, "INCLINATION": 99.0936, "RA_OF_ASC_NODE": 27.4781, "ARG_OF_PERICENTER": 228.5304, "MEAN_ANOMALY": 130.972, "EPHEMERIS_TYPE": 0, "CLASSIFICATION_TYPE": "U", "NORAD_CAT_ID": 32225, "ELEMENT_SET_NO": 999, "REV_AT_EPOCH": 68006, "BSTAR": 0.00042469, "MEAN_MOTION_DOT": 7.65e-06, "MEAN_MOTION_DDOT": 0}, "tle": {"line1": "1 32225U 99025CVX 25338.93661576  .00000765  00000+0  42469-3 0  9998", "line2": "2 32225  99.0936  27.4781 0071434 228.5304 130.9720 14.13034957680063"}}, "geometry": {"type": "Point", "coordinates": [37.53662051029045, -41.924792043343835]}}, {"type": "Feature", "properties": {"norad_id": 32230, "name": "FENGYUN 1C DEB", "group": "fengyun-1c-debris", "lat": -61.944756004541745, "lon": 146.9694886761729, "alt_km": 750.7959643116092, "timestamp": "2025-12-06T16:45:43.008171+00:00", "meta": {"OBJECT_NAME": "FENGYUN 1C DEB", "OBJECT_ID": "1999-025CWC", "EPOCH": "2025-11-30T09:24:55.537344", "MEAN_MOTION": 14.55588472, "ECCENTRICITY": 0.00526929, "INCLINATION": 98.8709, "RA_OF_ASC_NODE": 123.2328, "ARG_OF_PERICENTER": 127.3302, "MEAN_ANOMALY": 261.6517, "EPHEMERIS_TYPE": 0, "CLASSIFICATION_TYPE": "U", "NORAD_CAT_ID": 32230, "ELEMENT_SET_NO": 999, "REV_AT_EPOCH": 60490, "BSTAR": 0.0036213421, "MEAN_MOTION_DOT": 0.00016074, "MEAN_MOTION_DDOT": 0}, "tle": {"line1": "1 32230U 99025CWC 25334.39230946  .00016074  00000+0  36213-2 0  9992", "line2": "2 32230  98.8709 123.2328 0052692 127.3302 261.6517 14.55588472604902"}}, "geometry": {"type": "Point", "coordinates": [146.9694886761729, -61.944756004541745]}}]}